[{"OBJECT_NAME":"STARLINK-32105","OBJECT_ID":"2024-086H","EPOCH":"2026-03-09T00:36:14.673312","MEAN_MOTION":15.27571735,"ECCENTRICITY":5.995e-5,"INCLINATION":43.0048,"RA_OF_ASC_NODE":63.3818,"ARG_OF_PERICENTER":262.6216,"MEAN_ANOMALY":97.4567,"EPHEMERIS_TYPE":0,"CLASSIFICATION_TYPE":"U","NORAD_CAT_ID":59689,"ELEMENT_SET_NO":999,"REV_AT_EPOCH":10401,"BSTAR":8.65949e-7,"MEAN_MOTION_DOT":-2.38e-6,"MEAN_MOTION_DDOT":0},{"OBJECT_NAME":"COSMOS 1862","OBJECT_ID":"1987-055A","EPOCH":"2026-03-09T22:37:02.390592","MEAN_MOTION":15.30492139,"ECCENTRICITY":0.00097484,"INCLINATION":82.4856,"RA_OF_ASC_NODE":47.1862,"ARG_OF_PERICENTER":26.6325,"MEAN_ANOMALY":333.5414,"EPHEMERIS_TYPE":0,"CLASSIFICATION_TYPE":"U","NORAD_CAT_ID":18152,"ELEMENT_SET_NO":999,"REV_AT_EPOCH":8987,"BSTAR":0.00034125048,"MEAN_MOTION_DOT":0.00010107,"MEAN_MOTION_DDOT":0}]
